VIZARD-METEO (RS38S)
1 57189U 23091Z   26068.95913390  .00020895  00000-0  66106-3 0  9992
2 57189  97.5192 136.6522 0008762  71.7666 288.4529 15.32764799149472
SITRO-AIS-54
1 59777U 24092E   26068.89291330  .00025066  00000-0  78641-3 0  9997
2 59777  97.6420 198.2099 0008531 142.2606 217.9236 15.32997986100517
